[{"OBJECT_NAME":"STARLINK-32163","OBJECT_ID":"2024-131H","EPOCH":"2026-03-09T06:11:52.383552","MEAN_MOTION":15.30181151,"ECCENTRICITY":0.0001361,"INCLINATION":53.1598,"RA_OF_ASC_NODE":54.3553,"ARG_OF_PERICENTER":94.2219,"MEAN_ANOMALY":265.8937,"EPHEMERIS_TYPE":0,"CLASSIFICATION_TYPE":"U","NORAD_CAT_ID":60262,"ELEMENT_SET_NO":999,"REV_AT_EPOCH":9165,"BSTAR":0.00022064839,"MEAN_MOTION_DOT":6.177e-5,"MEAN_MOTION_DDOT":0},{"OBJECT_NAME":"SL-3 R\/B","OBJECT_ID":"1981-065B","EPOCH":"2026-03-09T21:58:16.284000","MEAN_MOTION":15.33300883,"ECCENTRICITY":0.00117648,"INCLINATION":97.6337,"RA_OF_ASC_NODE":111.1786,"ARG_OF_PERICENTER":10.529,"MEAN_ANOMALY":349.6196,"EPHEMERIS_TYPE":0,"CLASSIFICATION_TYPE":"U","NORAD_CAT_ID":12586,"ELEMENT_SET_NO":999,"REV_AT_EPOCH":43499,"BSTAR":0.00030084921,"MEAN_MOTION_DOT":9.62e-5,"MEAN_MOTION_DDOT":0}]
